[{"OBJECT_NAME":"STARLINK-34973","OBJECT_ID":"2025-179R","EPOCH":"2026-03-09T16:46:12.908928","MEAN_MOTION":15.05653681,"ECCENTRICITY":9.931e-5,"INCLINATION":97.6024,"RA_OF_ASC_NODE":113.0365,"ARG_OF_PERICENTER":114.3648,"MEAN_ANOMALY":245.7682,"EPHEMERIS_TYPE":0,"CLASSIFICATION_TYPE":"U","NORAD_CAT_ID":65250,"ELEMENT_SET_NO":999,"REV_AT_EPOCH":3181,"BSTAR":0.00019660226,"MEAN_MOTION_DOT":2.777e-5,"MEAN_MOTION_DDOT":0},{"OBJECT_NAME":"PSLV R\/B","OBJECT_ID":"2018-071C","EPOCH":"2026-03-09T22:40:07.416192","MEAN_MOTION":15.00058604,"ECCENTRICITY":0.00237177,"INCLINATION":97.444,"RA_OF_ASC_NODE":249.6196,"ARG_OF_PERICENTER":104.8167,"MEAN_ANOMALY":255.5687,"EPHEMERIS_TYPE":0,"CLASSIFICATION_TYPE":"U","NORAD_CAT_ID":43620,"ELEMENT_SET_NO":999,"REV_AT_EPOCH":40754,"BSTAR":0.00020356401,"MEAN_MOTION_DOT":2.493e-5,"MEAN_MOTION_DDOT":0}]
